{"type": "FeatureCollection", "features": [ {"type": "Feature", "properties": {"norad_id": 31985, "name": "FENGYUN 1C DEB", "group": "fengyun-1c-debris", "lat": 57.42182831502299, "lon": 93.71867980045559, "alt_km": 798.7743065009772, "timestamp": "2025-12-26T07:29:18.740916+00:00", "meta": {"OBJECT_NAME": "FENGYUN 1C DEB", "OBJECT_ID": "1999-025CPN", "EPOCH": "2025-12-23T13:05:30.625440", "MEAN_MOTION": 14.22990386, "ECCENTRICITY": 0.01508831, "INCLINATION": 98.2195, "RA_OF_ASC_NODE": 258.061, "ARG_OF_PERICENTER": 214.7786, "MEAN_ANOMALY": 144.346, "EPHEMERIS_TYPE": 0, "CLASSIFICATION_TYPE": "U", "NORAD_CAT_ID": 31985, "ELEMENT_SET_NO": 999, "REV_AT_EPOCH": 95764, "BSTAR": 0.00026019142, "MEAN_MOTION_DOT": 6.17e-06, "MEAN_MOTION_DDOT": 0}, "tle": {"line1": "1 31985U 99025CPN 25357.54549335  .00000617  00000+0  26019-3 0  9995", "line2": "2 31985  98.2195 258.0610 0150883 214.7786 144.3460 14.22990386957641"}}, "geometry": {"type": "Point", "coordinates": [93.71867980045559, 57.42182831502299]}}, {"type": "Feature", "properties": {"norad_id": 31987, "name": "FENGYUN 1C DEB", "group": "fengyun-1c-debris", "lat": -76.36694073730722, "lon": 113.74752762292869, "alt_km": 778.7079920726883, "timestamp": "2025-12-26T07:29:18.740926+00:00", "meta": {"OBJECT_NAME": "FENGYUN 1C DEB", "OBJECT_ID": "1999-025CPQ", "EPOCH": "2025-12-24T21:11:48.639840", "MEAN_MOTION": 14.44986343, "ECCENTRICITY": 0.0052109, "INCLINATION": 99.0406, "RA_OF_ASC_NODE": 333.2581, "ARG_OF_PERICENTER": 121.4546, "MEAN_ANOMALY": 269.479, "EPHEMERIS_TYPE": 0, "CLASSIFICATION_TYPE": "U", "NORAD_CAT_ID": 31987, "ELEMENT_SET_NO": 999, "REV_AT_EPOCH": 96545, "BSTAR": 0.0010158, "MEAN_MOTION_DOT": 3.554e-05, "MEAN_MOTION_DDOT": 0}, "tle": {"line1": "1 31987U 99025CPQ 25358.88320185  .00003554  00000+0  10158-2 0  9994", "line2": "2 31987  99.0406 333.2581 0052109 121.4546 269.4790 14.44986343965455"}}, "geometry": {"type": "Point", "coordinates": [113.74752762292869, -76.36694073730722]}}, {"type": "Feature", "properties": {"norad_id": 31989, "name": "FENGYUN 1C DEB", "group": "fengyun-1c-debris", "lat": -28.831205132935604, "lon": -123.71199366826228, "alt_km": 870.3625534143739, "timestamp": "2025-12-26T07:29:18.740936+00:00", "meta": {"OBJECT_NAME": "FENGYUN 1C DEB", "OBJECT_ID": "1999-025CPS", "EPOCH": "2025-12-24T09:59:02.280768", "MEAN_MOTION": 13.93605724, "ECCENTRICITY": 0.01154086, "INCLINATION": 99.2115, "RA_OF_ASC_NODE": 59.5243, "ARG_OF_PERICENTER": 267.1685, "MEAN_ANOMALY": 155.8429, "EPHEMERIS_TYPE": 0, "CLASSIFICATION_TYPE": "U", "NORAD_CAT_ID": 31989, "ELEMENT_SET_NO": 999, "REV_AT_EPOCH": 93880, "BSTAR": 0.00057348389, "MEAN_MOTION_DOT": 7.5e-06, "MEAN_MOTION_DDOT": 0}, "tle": {"line1": "1 31989U 99025CPS 25358.41599862  .00000750  00000+0  57348-3 0  9993", "line2": "2 31989  99.2115  59.5243 0115408 267.1685 155.8429 13.93605724938803"}}, "geometry": {"type": "Point", "coordinates": [-123.71199366826228, -28.831205132935604]}}, {"type": "Feature", "properties": {"norad_id": 31990, "name": "FENGYUN 1C DEB", "group": "fengyun-1c-debris", "lat": -28.72611370315883, "lon": 26.955570225600745, "alt_km": 1244.9750908476753, "timestamp": "2025-12-26T07:29:18.740946+00:00", "meta": {"OBJECT_NAME": "FENGYUN 1C DEB", "OBJECT_ID": "1999-025CPT", "EPOCH": "2025-12-25T12:55:26.800032", "MEAN_MOTION": 13.57208981, "ECCENTRICITY": 0.0260502, "INCLINATION": 99.1597, "RA_OF_ASC_NODE": 21.1614, "ARG_OF_PERICENTER": 151.8344, "MEAN_ANOMALY": 1.8034, "EPHEMERIS_TYPE": 0, "CLASSIFICATION_TYPE": "U", "NORAD_CAT_ID": 31990, "ELEMENT_SET_NO": 999, "REV_AT_EPOCH": 62945, "BSTAR": 0.00027166, "MEAN_MOTION_DOT": 2.03e-06, "MEAN_MOTION_DDOT": 0}, "tle": {"line1": "1 31990U 99025CPT 25359.53850463  .00000203  00000+0  27166-3 0  9994", "line2": "2 31990  99.1597  21.1614 0260502 151.8344   1.8034 13.57208981629456"}}, "geometry": {"type": "Point", "coordinates": [26.955570225600745, -28.72611370315883]}}, {"type": "Feature", "properties": {"norad_id": 31991, "name": "FENGYUN 1C DEB", "group": "fengyun-1c-debris", "lat": -11.75290998933203, "lon": 8.086893657240973, "alt_km": 1214.440776777691, "timestamp": "2025-12-26T07:29:18.740956+00:00", "meta": {"OBJECT_NAME": "FENGYUN 1C DEB", "OBJECT_ID": "1999-025CPU", "EPOCH": "2025-12-22T17:53:19.962816", "MEAN_MOTION": 13.61281478, "ECCENTRICITY": 0.02444249, "INCLINATION": 100.486, "RA_OF_ASC_NODE": 186.4677, "ARG_OF_PERICENTER": 28.7327, "MEAN_ANOMALY": 332.7029, "EPHEMERIS_TYPE": 0, "CLASSIFICATION_TYPE": "U", "NORAD_CAT_ID": 31991, "ELEMENT_SET_NO": 999, "REV_AT_EPOCH": 62223, "BSTAR": 0.00015589041, "MEAN_MOTION_DOT": 9.4e-07, "MEAN_MOTION_DDOT": 0}, "tle": {"line1": "1 31991U 99025CPU 25356.74536994  .00000094  00000+0  15589-3 0  9999", "line2": "2 31991 100.4860 186.4677 0244424  28.7327 332.7029 13.61281478622234"}}, "geometry": {"type": "Point", "coordinates": [8.086893657240973, -11.75290998933203]}}, {"type": "Feature", "properties": {"norad_id": 31992, "name": "FENGYUN 1C DEB", "group": "fengyun-1c-debris", "lat": 7.127608813828157, "lon": -42.55728692034582, "alt_km": 771.6718991913976, "timestamp": "2025-12-26T07:29:18.740966+00:00", "meta": {"OBJECT_NAME": "FENGYUN 1C DEB", "OBJECT_ID": "1999-025CPV", "EPOCH": "2025-12-25T15:07:19.981632", "MEAN_MOTION": 13.23021491, "ECCENTRICITY": 0.054228, "INCLINATION": 99.1676, "RA_OF_ASC_NODE": 317.9975, "ARG_OF_PERICENTER": 358.4174, "MEAN_ANOMALY": 1.5217, "EPHEMERIS_TYPE": 0, "CLASSIFICATION_TYPE": "U", "NORAD_CAT_ID": 31992, "ELEMENT_SET_NO": 999, "REV_AT_EPOCH": 54045, "BSTAR": 0.0014253, "MEAN_MOTION_DOT": 1.275e-05, "MEAN_MOTION_DDOT": 0}, "tle": {"line1": "1 31992U 99025CPV 25359.63009238  .00001275  00000+0  14253-2 0  9995", "line2": "2 31992  99.1676 317.9975 0542280 358.4174   1.5217 13.23021491540458"}}, "geometry": {"type": "Point", "coordinates": [-42.55728692034582, 7.127608813828157]}}, {"type": "Feature", "properties": {"norad_id": 31993, "name": "FENGYUN 1C DEB", "group": "fengyun-1c-debris", "lat": -77.57048584790714, "lon": 103.54653115524395, "alt_km": 1460.7202745356362, "timestamp": "2025-12-26T07:29:18.740976+00:00", "meta": {"OBJECT_NAME": "FENGYUN 1C DEB", "OBJECT_ID": "1999-025CPW", "EPOCH": "2025-12-24T16:13:16.260096", "MEAN_MOTION": 13.27487792, "ECCENTRICITY": 0.04232112, "INCLINATION": 99.2398, "RA_OF_ASC_NODE": 329.6876, "ARG_OF_PERICENTER": 106.0235, "MEAN_ANOMALY": 258.7919, "EPHEMERIS_TYPE": 0, "CLASSIFICATION_TYPE": "U", "NORAD_CAT_ID": 31993, "ELEMENT_SET_NO": 999, "REV_AT_EPOCH": 89101, "BSTAR": 0.0023117647, "MEAN_MOTION_DOT": 1.659e-05, "MEAN_MOTION_DDOT": 0}, "tle": {"line1": "1 31993U 99025CPW 25358.67588264  .00001659  00000+0  23118-2 0  9996", "line2": "2 31993  99.2398 329.6876 0423211 106.0235 258.7919 13.27487792891018"}}, "geometry": {"type": "Point", "coordinates": [103.54653115524395, -77.57048584790714]}}, {"type": "Feature", "properties": {"norad_id": 31994, "name": "FENGYUN 1C DEB", "group": "fengyun-1c-debris", "lat": -11.290567115459144, "lon": 171.78508644608, "alt_km": 896.2321715240414, "timestamp": "2025-12-26T07:29:18.740986+00:00", "meta": {"OBJECT_NAME": "FENGYUN 1C DEB", "OBJECT_ID": "1999-025CPX", "EPOCH": "2025-12-18T05:54:00.814464", "MEAN_MOTION": 13.95758705, "ECCENTRICITY": 0.01625274, "INCLINATION": 98.539, "RA_OF_ASC_NODE": 346.0233, "ARG_OF_PERICENTER": 130.8306, "MEAN_ANOMALY": 230.708, "EPHEMERIS_TYPE": 0, "CLASSIFICATION_TYPE": "U", "NORAD_CAT_ID": 31994, "ELEMENT_SET_NO": 999, "REV_AT_EPOCH": 56873, "BSTAR": -7.0824309e-05, "MEAN_MOTION_DOT": -1.46e-06, "MEAN_MOTION_DDOT": 0}, "tle": {"line1": "1 31994U 99025CPX 25352.24584276 -.00000146  00000+0 -70824-4 0  9993", "line2": "2 31994  98.5390 346.0233 0162527 130.8306 230.7080 13.95758705568736"}}, "geometry": {"type": "Point", "coordinates": [171.78508644608, -11.290567115459144]}}, {"type": "Feature", "properties": {"norad_id": 31997, "name": "FENGYUN 1C DEB", "group": "fengyun-1c-debris", "lat": -68.5333792984887, "lon": -166.80453363595944, "alt_km": 827.2120926545585, "timestamp": "2025-12-26T07:29:18.740997+00:00", "meta": {"OBJECT_NAME": "FENGYUN 1C DEB", "OBJECT_ID": "1999-025CQA", "EPOCH": "2025-12-20T23:11:18.732192", "MEAN_MOTION": 13.60709267, "ECCENTRICITY": 0.02907852, "INCLINATION": 102.5098, "RA_OF_ASC_NODE": 40.7426, "ARG_OF_PERICENTER": 255.2897, "MEAN_ANOMALY": 101.584, "EPHEMERIS_TYPE": 0, "CLASSIFICATION_TYPE": "U", "NORAD_CAT_ID": 31997, "ELEMENT_SET_NO": 999, "REV_AT_EPOCH": 61795, "BSTAR": 0.0020865272, "MEAN_MOTION_DOT": 2.017e-05, "MEAN_MOTION_DDOT": 0}, "tle": {"line1": "1 31997U 99025CQA 25354.96618903  .00002017  00000+0  20865-2 0  9997", "line2": "2 31997 102.5098  40.7426 0290785 255.2897 101.5840 13.60709267617956"}}, "geometry": {"type": "Point", "coordinates": [-166.80453363595944, -68.5333792984887]}}, {"type": "Feature", "properties": {"norad_id": 32086, "name": "FENGYUN 1C DEB", "group": "fengyun-1c-debris", "lat": -0.2198829509197041, "lon": -125.31601279040527, "alt_km": 960.6085078307588, "timestamp": "2025-12-26T07:29:18.741007+00:00", "meta": {"OBJECT_NAME": "FENGYUN 1C DEB", "OBJECT_ID": "1999-025CQC", "EPOCH": "2025-12-23T20:45:31.853664", "MEAN_MOTION": 13.68944984, "ECCENTRICITY": 0.029869, "INCLINATION": 99.2686, "RA_OF_ASC_NODE": 52.364, "ARG_OF_PERICENTER": 106.7235, "MEAN_ANOMALY": 256.6913, "EPHEMERIS_TYPE": 0, "CLASSIFICATION_TYPE": "U", "NORAD_CAT_ID": 32086, "ELEMENT_SET_NO": 999, "REV_AT_EPOCH": 61933, "BSTAR": 0.0021459, "MEAN_MOTION_DOT": 2.491e-05, "MEAN_MOTION_DDOT": 0}, "tle": {"line1": "1 32086U 99025CQC 25357.86495201  .00002491  00000+0  21459-2 0  9999", "line2": "2 32086  99.2686  52.3640 0298690 106.7235 256.6913 13.68944984619339"}}, "geometry": {"type": "Point", "coordinates": [-125.31601279040527, -0.2198829509197041]}}]}